STARLINK-3727           
1 52125U 22029AP  26054.24949267  .00001753  00000+0  12813-3 0  9993
2 52125  53.2182 133.9483 0001825 111.7538 248.3648 15.08862699218753
STARLINK-3732           
1 52126U 22029AQ  26053.92566901  .00001091  00000+0  86596-4 0  9993
2 52126  53.2166 135.4013 0001164  87.2994 272.8132 15.08842851218692
STARLINK-3715           
1 52127U 22029AR  26054.24583344 -.00001019  00000+0 -45956-4 0  9997
2 52127  53.2174 133.9624 0001452 100.8149 259.3007 15.08837031218748
STARLINK-3661           
1 52129U 22029AT  26054.23847652  .00002276  00000+0  16101-3 0  9996
2 52129  53.2173 133.9958 0001164  77.9870 282.1253 15.08839111218753
STARLINK-3711           
1 52131U 22029AV  26053.92337080  .00020744  00000+0  11675-2 0  9993
2 52131  53.2139 134.2253 0000914 205.7292 154.3657 15.13230534218726
STARLINK-3718           
1 52132U 22029AW  26054.24215152  .00000130  00000+0  26288-4 0  9990
2 52132  53.2164 133.9781 0001866  84.3729 275.7476 15.08842304218758
STARLINK-3707           
1 52133U 22029AX  26054.22743007  .00000184  00000+0  29647-4 0  9995
2 52133  53.2156 134.0429 0001295  88.2873 271.8268 15.08840147218759
STARLINK-3721           
1 52134U 22029AY  26054.23111214 -.00001290  00000+0 -62980-4 0  9994
2 52134  53.2178 134.0272 0001445 105.8149 254.3002 15.08841105218756
STARLINK-3729           
1 52135U 22029AZ  26053.95238539  .00000797  00000+0  68125-4 0  9999
2 52135  53.2174 135.2906 0001227  88.7452 271.3680 15.08842757218715
STARLINK-3720           
1 52136U 22029BA  26053.95879105  .00000593  00000+0  55329-4 0  9996
2 52136  53.2184 135.2485 0001550  85.6724 274.4445 15.08839953218713
STARLINK-3733           
1 52137U 22029BB  26054.21271262  .00000105  00000+0  24677-4 0  9998
2 52137  53.2169 134.1067 0001646  90.3698 269.7483 15.08842398218750
STARLINK-3723           
1 52138U 22029BC  26053.95511042  .00000312  00000+0  37714-4 0  9998
2 52138  53.2181 135.2649 0001205  98.3950 261.7179 15.08839620218717
STARLINK-3730           
1 52139U 22029BD  26054.26698974 -.00000515  00000+0 -14294-4 0  9999
2 52139  53.2161 143.8654 0000869  98.2363 261.8728 15.08840128218614
STARLINK-3682           
1 52140U 22029BE  26054.20903385 -.00000096  00000+0  12077-4 0  9990
2 52140  53.2190 134.1264 0001585  89.6514 270.4660 15.08837289218756
STARLINK-3761           
1 52262U 22041B   26053.74166269  .00000654  00000+0  59187-4 0  9991
2 52262  53.2177 176.1771 0001282 100.2482 259.8655 15.08839862212100
STARLINK-3786           
1 52263U 22041C   26053.74534728 -.00000430  00000+0 -89214-5 0  9990
2 52263  53.2177 176.2094 0001158  87.5597 272.5528 15.08841202212108
STARLINK-3795           
1 52264U 22041D   26054.06918792 -.00000095  00000+0  12091-4 0  9998
2 52264  53.2165 174.7551 0001219  93.6616 266.4516 15.08841708212150
STARLINK-3740           
1 52265U 22041E   26053.73432259  .00000513  00000+0  50327-4 0  9999
2 52265  53.2167 176.2592 0001643 109.4927 250.6243 15.08839583212102
STARLINK-3739           
1 52266U 22041F   26054.06182893  .00000592  00000+0  55305-4 0  9991
2 52266  53.2152 174.7860 0001298 103.1190 256.9947 15.08838169212151
STARLINK-3748           
1 52267U 22041G   26054.05814691  .00000890  00000+0  74019-4 0  9993
2 52267  53.2178 174.8108 0001235  83.2609 276.8523 15.08844313212159
STARLINK-3746           
1 52268U 22041H   26054.03973837  .00000992  00000+0  80374-4 0  9994
2 52268  53.2177 174.8091 0001223  82.3835 277.7296 15.08843119212158
STARLINK-3791           
1 52269U 22041J   26054.05445374  .00006610  00000+0  43267-3 0  9999
2 52269  53.2177 174.8201 0001203  75.3821 284.7304 15.08867273212152
STARLINK-3804           
1 52270U 22041K   26054.04711480  .00000162  00000+0  28265-4 0  9992
2 52270  53.2188 174.8817 0001173  84.7943 275.3183 15.08839625212155
STARLINK-3788           
1 52271U 22041L   26054.05079074  .00001057  00000+0  84492-4 0  9998
2 52271  53.2165 174.8366 0001224  92.6742 267.4390 15.08841749212154
STARLINK-3781           
1 52272U 22041M   26053.77942995  .00002684  00000+0  18671-3 0  9990
2 52272  53.2175 176.0921 0001161  94.3716 265.7409 15.08833242212114
STARLINK-3782           
1 52273U 22041N   26053.61847858  .00000008  00000+0  18564-4 0  9996
2 52273  53.2184 167.1621 0001260 108.5645 251.5484 15.08834866212223
STARLINK-3790           
1 52274U 22041P   26054.03607189 -.00000031  00000+0  16129-4 0  9997
2 52274  53.2170 174.9022 0001147  92.2993 267.8131 15.08837574212159
STARLINK-3784           
1 52275U 22041Q   26054.30839825 -.00003822  00000+0 -22222-3 0  9994
2 52275  53.2170 173.6794 0000976 102.4848 257.6254 15.08837800212193
STARLINK-3778           
1 52276U 22041R   26054.29735244 -.00000483  00000+0 -12281-4 0  9998
2 52276  53.2188 173.7338 0001402 102.7185 257.3965 15.08840915212197
STARLINK-3780           
1 52278U 22041T   26054.29367217  .00000532  00000+0  51526-4 0  9999
2 52278  53.2193 173.7505 0001417 105.5600 254.5549 15.08836686212197
STARLINK-3764           
1 52280U 22041V   26053.75270858  .00000169  00000+0  28691-4 0  9999
2 52280  53.2160 176.1772 0001282  94.7250 265.3888 15.08838433212117
STARLINK-3779           
1 52281U 22041W   26054.03334913  .00000497  00000+0  49284-4 0  9990
2 52281  53.2172 174.9163 0001221  98.4117 261.7014 15.08837630212150
STARLINK-3783           
1 52282U 22041X   26054.27619909 -.00000842  00000+0 -34826-4 0  9990
2 52282  53.2166 163.8237 0001590  92.0081 268.1093 15.08844468212326
STARLINK-3789           
1 52283U 22041Y   26053.82630800  .00000019  00000+0  19255-4 0  9997
2 52283  53.2162 175.8456 0001145  85.4530 274.6593 15.08840860212127
STARLINK-3561           
1 52284U 22041Z   26054.00386751  .00000754  00000+0  65445-4 0  9990
2 52284  53.2178 165.0502 0001334  92.8366 267.2779 15.08841595212284
STARLINK-3802           
1 52286U 22041AB  26053.99653098 -.00002050  00000+0 -11085-3 0  9993
2 52286  53.2172 165.0809 0001181 100.8350 259.2775 15.08819588212287
STARLINK-3822           
1 52287U 22041AC  26053.74902866 -.00001782  00000+0 -93896-4 0  9999
2 52287  53.2181 176.1928 0001067  98.8244 261.2869 15.08835010212111
STARLINK-3776           
1 52288U 22041AD  26053.99283349 -.00002565  00000+0 -14317-3 0  9995
2 52288  53.2173 165.1022 0001272 107.1225 252.9906 15.08829637212282
STARLINK-3751           
1 52289U 22041AE  26054.27251484 -.00000540  00000+0 -15846-4 0  9993
2 52289  53.2199 163.8447 0001226 103.8492 256.2637 15.08834701212326
STARLINK-3772           
1 52290U 22041AF  26053.58530020  .00000085  00000+0  23439-4 0  9993
2 52290  53.2172 166.9302 0001463  77.8096 282.3060 15.08845607212222
STARLINK-3753           
1 52292U 22041AH  26053.71314859 -.00000593  00000+0 -19147-4 0  9997
2 52292  53.2160 166.3531 0001107  74.4084 285.7030 15.08849034212248
STARLINK-3771           
1 52293U 22041AJ  26053.72514752 -.00000180  00000+0  67726-5 0  9991
2 52293  53.2168 166.3072 0001176  89.6450 270.4677 15.08837451212246
STARLINK-3777           
1 52294U 22041AK  26054.04067003  .00000185  00000+0  29698-4 0  9999
2 52294  53.2167 164.8814 0001208 102.4420 257.6707 15.08839669212299
STARLINK-3765           
1 52295U 22041AL  26053.78674786  .00000330  00000+0  38847-4 0  9990
2 52295  53.2167 166.0233 0001276  89.4062 270.7076 15.08841219212255
STARLINK-3766           
1 52296U 22041AM  26054.29458650  .00000431  00000+0  45140-4 0  9994
2 52296  53.2166 163.7404 0001226  86.0988 274.0144 15.08848930212333
STARLINK-3758           
1 52297U 22041AN  26053.71681480  .00001980  00000+0  14242-3 0  9998
2 52297  53.2162 166.3375 0001147  84.6281 275.4842 15.08853241212249
STARLINK-3760           
1 52298U 22041AP  26053.59166685 -.00000680  00000+0 -24664-4 0  9998
2 52298  53.2179 166.5174 0001409  84.1231 275.9922 15.08836343212235
STARLINK-3769           
1 52300U 22041AR  26054.28355714 -.00000881  00000+0 -37275-4 0  9997
2 52300  53.2173 163.7895 0001172  89.0804 271.0323 15.08838327213551
STARLINK-3768           
1 52301U 22041AS  26054.03698946 -.00000117  00000+0  10727-4 0  9992
2 52301  53.2181 164.8980 0001313  91.6017 268.5126 15.08840644212297
STARLINK-3564           
1 52302U 22041AT  26054.00846856 -.00000397  00000+0 -68458-5 0  9991
2 52302  53.2171 155.0268 0001147  96.5274 263.5849 15.08848360212427
STARLINK-3742           
1 52303U 22041AU  26054.02227051  .00002420  00000+0  17001-3 0  9997
2 52303  53.2170 164.9615 0001162  78.2686 281.8437 15.08849678213513
STARLINK-3744           
1 52304U 22041AV  26054.00478922  .00000242  00000+0  33282-4 0  9991
2 52304  53.2182 155.0429 0001082  87.3041 272.8076 15.08842144212427
STARLINK-3724           
1 52305U 22041AW  26054.29092444  .00002854  00000+0  19733-3 0  9999
2 52305  53.2166 163.8649 0001237  83.0033 277.1100 15.08841588212334
STARLINK-3747           
1 52306U 22041AX  26054.26607266 -.00000246  00000+0  26326-5 0  9993
2 52306  53.2179 153.8687 0001229  91.3578 268.7555 15.08837134213688
STARLINK-3755           
1 52307U 22041AY  26054.27987155  .00000677  00000+0  60647-4 0  9993
2 52307  53.2187 163.8073 0001376  82.1306 277.9842 15.08837437212336
STARLINK-3756           
1 52309U 22041BA  26054.26239540  .00002375  00000+0  16725-3 0  9996
2 52309  53.2172 153.8845 0001152  93.5342 266.5782 15.08847155213680
STARLINK-3688           
1 52310U 22041BB  26054.25872092 -.00000194  00000+0  58527-5 0  9998
2 52310  53.2174 153.9688 0000428  45.2989 314.8038 15.08834193213685
STARLINK-3750           
1 52311U 22041BC  26053.99007338  .00002657  00000+0  18495-3 0  9995
2 52311  53.2181 155.1119 0001394  82.7604 277.3547 15.08843870213646
STARLINK-3752           
1 52312U 22041BD  26053.68462293  .00000170  00000+0  28764-4 0  9996
2 52312  53.2149 156.4320 0001324  94.5563 265.5581 15.08841120213606
STARLINK-3749           
1 52313U 22041BE  26054.28447042 -.00000299  00000+0 -67557-6 0  9998
2 52313  53.2176 153.7872 0001346 101.8529 258.2615 15.08840087213694
